[
    {
        "CCSDS_OMM_VERS": "3.0",
        "COMMENT": "GENERATED VIA SPACE-TRACK.ORG API",
        "CREATION_DATE": "2025-04-14T03:05:54",
        "ORIGINATOR": "18 SPCS",
        "OBJECT_NAME": "GALILEO 10 (206)",
        "OBJECT_ID": "2015-045B",
        "CENTER_NAME": "EARTH",
        "REF_FRAME": "TEME",
        "TIME_SYSTEM": "UTC",
        "MEAN_ELEMENT_THEORY": "SGP4",
        "EPOCH": "2025-04-12T21:41:48.265440",
        "MEAN_MOTION": "1.70474013",
        "ECCENTRICITY": "0.00027050",
        "INCLINATION": "55.0922",
        "RA_OF_ASC_NODE": "233.4838",
        "ARG_OF_PERICENTER": "49.4866",
        "MEAN_ANOMALY": "310.4873",
        "EPHEMERIS_TYPE": "0",
        "CLASSIFICATION_TYPE": "U",
        "NORAD_CAT_ID": "40890",
        "ELEMENT_SET_NO": "999",
        "REV_AT_EPOCH": "5970",
        "BSTAR": "0.00000000000000",
        "MEAN_MOTION_DOT": "-0.00000018",
        "MEAN_MOTION_DDOT": "0.0000000000000",
        "SEMIMAJOR_AXIS": "29600.319",
        "PERIOD": "844.704",
        "APOAPSIS": "23230.190",
        "PERIAPSIS": "23214.177",
        "OBJECT_TYPE": "PAYLOAD",
        "RCS_SIZE": "LARGE",
        "COUNTRY_CODE": "ESA",
        "LAUNCH_DATE": "2015-09-11",
        "SITE": "FRGUI",
        "DECAY_DATE": null,
        "FILE": "4701263",
        "GP_ID": "285537652",
        "TLE_LINE0": "0 GALILEO 10 (206)",
        "TLE_LINE1": "1 40890U 15045B   25102.90403085 -.00000018  00000-0  00000-0 0  9995",
        "TLE_LINE2": "2 40890  55.0922 233.4838 0002705  49.4866 310.4873  1.70474013 59702"
    }
]